STARLINK-36454          
1 67470U 26008AB  26021.66668981 -.00428932  74134-4 -69595-3 0  9991
2 67470  43.0029 119.7958 0001829 296.0662 226.7048 16.02358984  2237
STARLINK-36334          
1 67471U 26008AC  26021.66668981 -.00452503  80695-4 -76357-3 0  9996
2 67471  43.0029 119.8209 0001832 295.8319 217.0898 16.01701918  2232
STARLINK-36269          
1 67472U 26008AD  26021.66668981 -.00410627  69132-4 -64987-3 0  9997
2 67472  43.0027 119.7809 0001844 295.4860 233.0825 16.02771170  2254
STARLINK-36408          
1 67473U 26008AE  26021.58335648 -.00419646  72310-4 -63631-3 0  9997
2 67473  43.0028 120.2851 0001816 294.9180 121.2192 16.03488690  2245
ALSAT-3A                
1 67474U 26009A   26022.43676652 -.00000046  00000+0  10785-5 0  9992
2 67474  97.4707  97.1801 0011225 232.6695 127.3519 15.23120456  1114
CZ-2C R/B               
1 67475U 26009B   26022.46901957  .00005696  00000+0  38479-3 0  9998
2 67475  97.1805  96.4005 0099054 197.4569 162.3245 15.02953486  1101
TIANQI-37               
1 67476U 26010A   26022.45927168  .00000425  00000+0  29055-3 0  9997
2 67476  44.9834  13.3188 0010677 338.4272  21.6116 14.14268904   947
TIANQI-38               
1 67477U 26010B   26022.45856736  .00000438  00000+0  29625-3 0  9997
2 67477  44.9798  13.3134 0011182 341.0114  19.0306 14.14419465   947
TIANQI-39               
1 67478U 26010C   26022.38746722  .00000453  00000+0  30361-3 0  9999
2 67478  44.9844  13.6344 0011110 344.7124  15.3378 14.14521402   930
TIANQI-40               
1 67479U 26010D   26022.45803308  .00000445  00000+0  29942-3 0  9996
2 67479  44.9849  13.3119 0011853 341.3282  18.7121 14.14533850   949
TRANSPORTER-15DT        
1 67483U 25276DT  26022.15928921  .00003502  00000+0  30402-3 0  9990
2 67483  97.5436  97.8861 0009974 260.3710  99.6386 14.97621684   752
HULIANWANG DIGUI-146    
1 67522U 26013A   26020.51319441 -.00000149  00000+0  00000+0 0  9995
2 67522  50.0132 180.3657 0011444 238.6074 121.3708 13.97939256   173
HULIANWANG DIGUI-147    
1 67523U 26013B   26021.72840118 -.00000136  00000+0  93300-5 0  9997
2 67523  49.9994 175.4584 0015328 243.7764 116.1562 13.97588994   347
HULIANWANG DIGUI-148    
1 67524U 26013C   26021.44230141 -.00000137  00000+0  86600-5 0  9992
2 67524  50.0070 176.6144 0010785 240.3737 119.6091 13.98087765   308
HULIANWANG DIGUI-149    
1 67525U 26013D   26021.15633713 -.00000091  00000+0  40401-4 0  9990
2 67525  50.0063 177.7692 0010537 247.0477 112.9313 13.98123959   265
HULIANWANG DIGUI-150    
1 67526U 26013E   26021.65646837 -.00000137  00000+0  85001-5 0  9994
2 67526  50.0089 175.7502 0010019 246.8578 113.1269 13.98253211   354
HULIANWANG DIGUI-151    
1 67527U 26013F   26021.15608316 -.00000614  00000+0 -32354-3 0  9992
2 67527  50.0035 177.7600 0009841 238.6748 121.3191 13.98327198   267
HULIANWANG DIGUI-152    
1 67528U 26013G   26021.72796603 -.00000136  00000+0  91180-5 0  9995
2 67528  49.9990 175.4472 0009907 256.3608 103.6191 13.97887108   345
HULIANWANG DIGUI-153    
1 67529U 26013H   26021.44172990 -.00000104  00000+0  31747-4 0  9999
2 67529  50.0011 176.6007 0008855 242.1618 117.8388 13.98470310   298
HULIANWANG DIGUI-154    
1 67530U 26013J   26021.22721932 -.00000008  00000+0  98151-4 0  9998
2 67530  50.0045 177.4718 0008317 246.2151 113.7880 13.98568419   262
CZ-12 R/B               
1 67531U 26013K   26022.47806450  .00000052  00000+0  10556-3 0  9996
2 67531  49.9896 172.1326 0069029 138.8130 221.8016 14.14450533   449
